1 39452U 13067B   18324.89882494 +.00001176 +00000-0 +25247-4 0  9999
2 39452 087.3450 340.1823 0003463 091.2795 268.8859 15.43468260280535
1 39452U 13067B   18325.87134608  .00001186  00000-0  25487-4 0  9992
2 39452  87.3449 339.8266 0003470  90.5864 269.5790 15.43470178280720
1 39452U 13067B   18325.93618099 +.00001129 +00000-0 +24209-4 0  9998
2 39452 087.3449 339.8029 0003469 090.5334 269.6320 15.43469937280694
1 39452U 13067B   18326.90870116 +.00001089 +00000-0 +23310-4 0  9993
2 39452 087.3448 339.4473 0003474 089.7895 270.3760 15.43471537280843
1 39452U 13067B   18327.16803958  .00001072  00000-0  22926-4 0  9996
2 39452  87.3448 339.3525 0003473  89.7213 270.4442 15.43472009280925
1 39452U 13067B   18327.94605489 +.00001008 +00000-0 +21499-4 0  9994
2 39452 087.3447 339.0679 0003473 089.2213 270.9442 15.43473034281000
1 39452U 13067B   18328.20539303  .00000992  00000-0  21129-4 0  9996
2 39452  87.3448 338.9731 0003471  89.1161 271.0494 15.43473488281087
1 39452U 13067B   18328.59440032 +.00000957 +00000-0 +20358-4 0  9992
2 39452 087.3447 338.8308 0003467 088.8278 271.3376 15.43474015281107
1 39452U 13067B   18328.91857274 +.00000987 +00000-0 +21012-4 0  9999
2 39452 087.3447 338.7123 0003468 088.5674 271.5980 15.43474765281159
1 39452U 13067B   18329.50208313  .00000935  00000-0  19847-4 0  9995
2 39452  87.3447 338.4989 0003462  88.2238 271.9415 15.43475545281281
1 39452U 13067B   18329.56691759 +.00000926 +00000-0 +19651-4 0  9994
2 39452 087.3446 338.4752 0003462 088.1336 272.0317 15.43475608281256
1 39452U 13067B   18329.95592398 +.00000962 +00000-0 +20447-4 0  9991
2 39452 087.3446 338.3329 0003458 087.8115 272.3538 15.43476553281316
1 39452U 13067B   18330.53943367  .00000924  00000-0  19607-4 0  9997
2 39452  87.3446 338.1195 0003449  87.5435 272.6217 15.43477366281441
1 39452U 13067B   18330.60426806 +.00000913 +00000-0 +19370-4 0  9994
2 39452 087.3446 338.0958 0003449 087.4612 272.7040 15.43477422281418
1 39452U 13067B   18330.92843983 +.00000947 +00000-0 +20116-4 0  9995
2 39452 087.3446 337.9773 0003447 087.2523 272.9129 15.43478142281463
1 39452U 13067B   18331.83612050  .00000920  00000-0  19515-4 0  9997
2 39452  87.3445 337.6453 0003436  86.7467 273.4183 15.43479430281640
1 39452U 13067B   18331.96578891 +.00000953 +00000-0 +20259-4 0  9998
2 39452 087.3445 337.5979 0003434 086.6417 273.5233 15.43479892281621
1 39452U 13067B   18332.87346872  .00000882  00000-0  18656-4 0  9990
2 39452  87.3445 337.2659 0003425  86.1426 274.0223 15.43480951281801
1 39452U 13067B   18332.93830284 +.00000911 +00000-0 +19319-4 0  9992
2 39452 087.3445 337.2422 0003424 086.0955 274.0694 15.43481258281773
1 39452U 13067B   18333.91081574 +.00000977 +00000-0 +20778-4 0  9994
2 39452 087.3445 336.8864 0003415 085.3405 274.8242 15.43483070281928
1 39452U 13067B   18334.17015223  .00000971  00000-0  20658-4 0  9992
2 39452  87.3446 336.7916 0003410  85.2344 274.9303 15.43483520282001
1 39452U 13067B   18334.88332778 +.00001030 +00000-0 +21984-4 0  9997
2 39452 087.3445 336.5307 0003401 084.7553 275.4092 15.43484868282072
1 39452U 13067B   18335.20749805  .00001042  00000-0  22246-4 0  9992
2 39452  87.3446 336.4121 0003397  84.6173 275.5471 15.43485514282168
1 39452U 13067B   18335.92067235 +.00001140 +00000-0 +24423-4 0  9999
2 39452 087.3445 336.1513 0003389 084.0719 276.0925 15.43487247282233
1 39452U 13067B   18336.50417800  .00001062  00000-0  22692-4 0  9990
2 39452  87.3445 335.9378 0003375  83.7482 276.4160 15.43487912282365
1 39452U 13067B   18336.95801581 +.00001003 +00000-0 +21372-4 0  9991
2 39452 087.3445 335.7718 0003370 083.3799 276.7841 15.43488313282391
1 39452U 13067B   18337.54152119  .00000948  00000-0  20130-4 0  9991
2 39452  87.3445 335.5584 0003356  83.0111 277.1527 15.43488974282523
1 39452U 13067B   18337.93052446 +.00000931 +00000-0 +19766-4 0  9991
2 39452 087.3445 335.4161 0003350 082.7114 277.4523 15.43489552282540
1 39452U 13067B   18338.83819806  .00000881  00000-0  18632-4 0  9997
2 39452  87.3444 335.0841 0003329  82.3422 277.8212 15.43490853282729
1 39452U 13067B   18338.96786565 +.00000874 +00000-0 +18489-4 0  9998
2 39452 087.3444 335.0367 0003317 082.2556 277.9078 15.43491039282702
1 39452U 13067B   18339.87553781  .00000915  00000-0  19385-4 0  9993
2 39452  87.3444 334.7047 0003291  81.6840 278.4790 15.43492965282888
1 39452U 13067B   18339.94037140 +.00000936 +00000-0 +19873-4 0  9992
2 39452 087.3444 334.6810 0003289 081.6302 278.5328 15.43493247282854
1 39452U 13067B   18340.91287609 +.00001006 +00000-0 +21424-4 0  9992
2 39452 087.3444 334.3253 0003261 081.0312 279.1314 15.43495510283002
1 39452U 13067B   18341.49637851  .00000976  00000-0  20761-4 0  9992
2 39452  87.3445 334.1118 0003241  80.7664 279.3959 15.43496409283134
1 39452U 13067B   18341.95021328 +.00000874 +00000-0 +18471-4 0  9991
2 39452 087.3444 333.9459 0003229 080.5588 279.6034 15.43496771283169
1 39452U 13067B   18342.53371436  .00001023  00000-0  21805-4 0  9996
2 39452  87.3445 333.7325 0003208  80.2536 279.9083 15.43498838283294
1 39452U 13067B   18342.92271476 +.00001078 +00000-0 +23029-4 0  9992
2 39452 087.3445 333.5902 0003198 080.1234 280.0384 15.43499958283319
1 39452U 13067B   18343.96004869 +.00001000 +00000-0 +21300-4 0  9992
2 39452 087.3446 333.2108 0003171 079.7158 280.4457 15.43501801283478
1 39452U 13067B   18344.93254747 +.00001102 +00000-0 +23560-4 0  9995
2 39452 087.3447 332.8551 0003144 079.2191 280.9420 15.43504519283629
1 39452U 13067B   18345.96987830 +.00001081 +00000-0 +23091-4 0  9990
2 39452 087.3448 332.4757 0003111 078.7770 281.3836 15.43506692283782
1 39452U 13067B   18346.48854291  .00001112  00000-0  23797-4 0  9990
2 39452  87.3448 332.2860 0003096  78.6660 281.4944 15.43507994283905
1 39452U 13067B   18346.94237449 +.00001040 +00000-0 +22171-4 0  9996
2 39452 087.3449 332.1201 0003085 078.5282 281.6321 15.43508613283934
1 39452U 13067B   18347.85003659  .00001000  00000-0  21288-4 0  9995
2 39452  87.3449 331.7881 0003052  78.1373 282.0226 15.43510340284114
1 39452U 13067B   18348.88736334  .00000962  00000-0  20435-4 0  9991
2 39452  87.3450 331.4088 0003016  77.8113 282.3481 15.43512369284276
1 39452U 13067B   18348.95219617 +.00000968 +00000-0 +20574-4 0  9999
2 39452 087.3450 331.3851 0003013 077.8012 282.3582 15.43512557284246
1 39452U 13067B   18349.92468888 +.00000928 +00000-0 +19672-4 0  9996
2 39452 087.3450 331.0294 0002972 077.6890 282.4700 15.43514222284399
1 39452U 13067B   18350.18402004  .00000934  00000-0  19804-4 0  9998
2 39452  87.3451 330.9346 0002960  77.6799 282.4789 15.43514727284477
1 39452U 13067B   18350.96201338 +.00000931 +00000-0 +19729-4 0  9994
2 39452 087.3451 330.6501 0002929 077.5249 282.6335 15.43516166284558
1 39452U 13067B   18351.54550798  .00000909  00000-0  19244-4 0  9993
2 39452  87.3451 330.4367 0002904  77.4669 282.6912 15.43517001284688
1 39452U 13067B   18351.93450392 +.00000931 +00000-0 +19736-4 0  9996
2 39452 087.3451 330.2945 0002889 077.3724 282.7856 15.43517895284703
1 39452U 13067B   18352.84216074  .00000966  00000-0  20515-4 0  9999
2 39452  87.3451 329.9625 0002850  77.3494 282.8082 15.43519644284880
1 39452U 13067B   18352.90699311 +.00000996 +00000-0 +21193-4 0  9991
2 39452 087.3452 329.9388 0002848 077.3080 282.8495 15.43520011284850
1 39452U 13067B   18353.55531867 +.00001011 +00000-0 +21531-4 0  9999
2 39452 087.3452 329.7018 0002821 077.3510 282.8062 15.43521303284953
1 39452U 13067B   18353.94431367 +.00001021 +00000-0 +21745-4 0  9994
2 39452 087.3452 329.5595 0002808 077.3672 282.7899 15.43522102285018
1 39452U 13067B   18354.59263810 +.00001082 +00000-0 +23104-4 0  9990
2 39452 087.3453 329.3225 0002789 077.3878 282.7690 15.43523730285111
1 39452U 13067B   18354.91680038 +.00000997 +00000-0 +21203-4 0  9993
2 39452 087.3453 329.2039 0002777 077.5726 282.5842 15.43523946285165
1 39452U 13067B   18355.50029162  .00001087  00000-0  23210-4 0  9995
2 39452  87.3454 328.9906 0002760  77.4675 282.6890 15.43525572285294
1 39452U 13067B   18355.69478890 +.00001041 +00000-0 +22190-4 0  9997
2 39452 087.3454 328.9195 0002756 077.4758 282.6807 15.43525645285289
1 39452U 13067B   18356.60244131 +.00000982 +00000-0 +20865-4 0  9998
2 39452 087.3455 328.5876 0002722 077.5597 282.5965 15.43527108285423
1 39452U 13067B   18356.86177036  .00000967  00000-0  20533-4 0  9990
2 39452  87.3455 328.4928 0002713  77.6113 282.5448 15.43527582285506
1 39452U 13067B   18357.89908595  .00000919  00000-0  19473-4 0  9994
2 39452  87.3456 328.1135 0002678  77.9526 282.2031 15.43529306285663
1 39452U 13067B   18357.96391806 +.00000912 +00000-0 +19314-4 0  9990
2 39452 087.3456 328.0898 0002675 077.9948 282.1608 15.43529431285638
1 39452U 13067B   18358.93640019 +.00000895 +00000-0 +18930-4 0  9994
2 39452 087.3457 327.7343 0002638 078.0917 282.0636 15.43531155285789
1 39452U 13067B   18359.19572860  .00000905  00000-0  19145-4 0  9992
2 39452  87.3458 327.6395 0002628  78.2162 281.9389 15.43531592285866
1 39452U 13067B   18359.90888141 +.00000888 +00000-0 +18771-4 0  9997
2 39452 087.3459 327.3788 0002601 078.2857 281.8692 15.43532757285930
1 39452U 13067B   18360.49236964  .00000895  00000-0  18934-4 0  9992
2 39452  87.3459 327.1654 0002576  78.5808 281.5738 15.43533777286066
1 39452U 13067B   18360.94619357 +.00000916 +00000-0 +19397-4 0  9991
2 39452 087.3460 326.9995 0002558 078.7600 281.3944 15.43534605286096
1 39452U 13067B   18361.59451301 +.00000961 +00000-0 +20392-4 0  9993
2 39452 087.3461 326.7625 0002534 079.0938 281.0604 15.43535939286199
1 39452U 13067B   18361.78900879  .00000954  00000-0  20235-4 0  9991
2 39452  87.3461 326.6914 0002528  79.2665 280.8876 15.43536228286269
1 39452U 13067B   18361.91867267 +.00000938 +00000-0 +19895-4 0  9991
2 39452 087.3461 326.6440 0002524 079.2483 280.9058 15.43536354286248
1 39452U 13067B   18362.56699085 +.00001097 +00000-0 +23444-4 0  9996
2 39452 087.3462 326.4070 0002507 079.5223 280.6316 15.43538492286342
